[Satellite]
VERSION=1.1
NAME=HADES-R (SO-124)
NICKNAME=HADES-R (SO-124)
TLE1=1 62690U 25009CK  25178.20654815  .00030605  00000-0  10480-2 0  9992
TLE2=2 62690  97.4092 258.9555 0002807  64.4388 295.7142 15.30163848 24842
STATUS=0
